[{"COMMENT":"GENERATED VIA SPACETRACK.ORG API","ORIGINATOR":"18 SPCS","NORAD_CAT_ID":"43476","OBJECT_NAME":"GRACE-FO 1","OBJECT_TYPE":"PAYLOAD","CLASSIFICATION_TYPE":"U","INTLDES":"18047A","EPOCH":"2023-10-18 21:51:58","EPOCH_MICROSECONDS":"891392","MEAN_MOTION":"15.2710043","ECCENTRICITY":"0.001073","INCLINATION":"88.9849","RA_OF_ASC_NODE":"332.3645","ARG_OF_PERICENTER":"284.5398","MEAN_ANOMALY":"75.4661","EPHEMERIS_TYPE":"0","ELEMENT_SET_NO":"999","REV_AT_EPOCH":"30087","BSTAR":"0.00018018","MEAN_MOTION_DOT":"0.00004821","MEAN_MOTION_DDOT":"0","FILE":"4040456","TLE_LINE0":"0 GRACE-FO 1","TLE_LINE1":"1 43476U 18047A   23291.91109828  .00004821  00000-0  18018-3 0  9995","TLE_LINE2":"2 43476  88.9849 332.3645 0010730 284.5398  75.4661 15.27100430300878","OBJECT_ID":"2018-047A","OBJECT_NUMBER":"43476","SEMIMAJOR_AXIS":"6862.622","PERIOD":"94.296","APOGEE":"491.851","PERIGEE":"477.124","DECAYED":"0"},{"COMMENT":"GENERATED VIA SPACETRACK.ORG API","ORIGINATOR":"18 SPCS","NORAD_CAT_ID":"43476","OBJECT_NAME":"GRACE-FO 1","OBJECT_TYPE":"PAYLOAD","CLASSIFICATION_TYPE":"U","INTLDES":"18047A","EPOCH":"2023-10-19 13:35:36","EPOCH_MICROSECONDS":"231648","MEAN_MOTION":"15.27106119","ECCENTRICITY":"0.0010702","INCLINATION":"88.985","RA_OF_ASC_NODE":"332.2749","ARG_OF_PERICENTER":"281.3035","MEAN_ANOMALY":"78.7012","EPHEMERIS_TYPE":"0","ELEMENT_SET_NO":"999","REV_AT_EPOCH":"30097","BSTAR":"0.00017853","MEAN_MOTION_DOT":"0.00004778","MEAN_MOTION_DDOT":"0","FILE":"4042363","TLE_LINE0":"0 GRACE-FO 1","TLE_LINE1":"1 43476U 18047A   23292.56639157  .00004778  00000-0  17853-3 0  9997","TLE_LINE2":"2 43476  88.9850 332.2749 0010702 281.3035  78.7012 15.27106119300973","OBJECT_ID":"2018-047A","OBJECT_NUMBER":"43476","SEMIMAJOR_AXIS":"6862.605","PERIOD":"94.296","APOGEE":"491.815","PERIGEE":"477.126","DECAYED":"0"},{"COMMENT":"GENERATED VIA SPACETRACK.ORG API","ORIGINATOR":"18 SPCS","NORAD_CAT_ID":"43476","OBJECT_NAME":"GRACE-FO 1","OBJECT_TYPE":"PAYLOAD","CLASSIFICATION_TYPE":"U","INTLDES":"18047A","EPOCH":"2023-10-19 21:27:24","EPOCH_MICROSECONDS":"812352","MEAN_MOTION":"15.27109599","ECCENTRICITY":"0.0010682","INCLINATION":"88.9849","RA_OF_ASC_NODE":"332.2302","ARG_OF_PERICENTER":"279.6986","MEAN_ANOMALY":"80.3056","EPHEMERIS_TYPE":"0","ELEMENT_SET_NO":"999","REV_AT_EPOCH":"30102","BSTAR":"0.00019031","MEAN_MOTION_DOT":"0.00005092","MEAN_MOTION_DDOT":"0","FILE":"4042947","TLE_LINE0":"0 GRACE-FO 1","TLE_LINE1":"1 43476U 18047A   23292.89403718  .00005092  00000-0  19031-3 0  9995","TLE_LINE2":"2 43476  88.9849 332.2302 0010682 279.6986  80.3056 15.27109599301027","OBJECT_ID":"2018-047A","OBJECT_NUMBER":"43476","SEMIMAJOR_AXIS":"6862.595","PERIOD":"94.296","APOGEE":"491.791","PERIGEE":"477.129","DECAYED":"0"},{"COMMENT":"GENERATED VIA SPACETRACK.ORG API","ORIGINATOR":"18 SPCS","NORAD_CAT_ID":"43476","OBJECT_NAME":"GRACE-FO 1","OBJECT_TYPE":"PAYLOAD","CLASSIFICATION_TYPE":"U","INTLDES":"18047A","EPOCH":"2023-10-20 03:44:51","EPOCH_MICROSECONDS":"648576","MEAN_MOTION":"15.27110521","ECCENTRICITY":"0.001067","INCLINATION":"88.985","RA_OF_ASC_NODE":"332.1944","ARG_OF_PERICENTER":"278.355","MEAN_ANOMALY":"81.649","EPHEMERIS_TYPE":"0","ELEMENT_SET_NO":"999","REV_AT_EPOCH":"30106","BSTAR":"0.00016382","MEAN_MOTION_DOT":"0.00004387","MEAN_MOTION_DDOT":"0","FILE":"4043007","TLE_LINE0":"0 GRACE-FO 1","TLE_LINE1":"1 43476U 18047A   23293.15615334  .00004387  00000-0  16382-3 0  9996","TLE_LINE2":"2 43476  88.9850 332.1944 0010670 278.3550  81.6490 15.27110521301067","OBJECT_ID":"2018-047A","OBJECT_NUMBER":"43476","SEMIMAJOR_AXIS":"6862.592","PERIOD":"94.296","APOGEE":"491.780","PERIGEE":"477.135","DECAYED":"0"},{"COMMENT":"GENERATED VIA SPACETRACK.ORG API","ORIGINATOR":"18 SPCS","NORAD_CAT_ID":"43476","OBJECT_NAME":"GRACE-FO 1","OBJECT_TYPE":"PAYLOAD","CLASSIFICATION_TYPE":"U","INTLDES":"18047A","EPOCH":"2023-10-20 13:11:01","EPOCH_MICROSECONDS":"842432","MEAN_MOTION":"15.27114162","ECCENTRICITY":"0.0010661","INCLINATION":"88.9851","RA_OF_ASC_NODE":"332.1407","ARG_OF_PERICENTER":"276.431","MEAN_ANOMALY":"83.5725","EPHEMERIS_TYPE":"0","ELEMENT_SET_NO":"999","REV_AT_EPOCH":"30112","BSTAR":"0.00016731","MEAN_MOTION_DOT":"0.00004481","MEAN_MOTION_DDOT":"0","FILE":"4044291","TLE_LINE0":"0 GRACE-FO 1","TLE_LINE1":"1 43476U 18047A   23293.54932688  .00004481  00000-0  16731-3 0  9996","TLE_LINE2":"2 43476  88.9851 332.1407 0010661 276.4310  83.5725 15.27114162301129","OBJECT_ID":"2018-047A","OBJECT_NUMBER":"43476","SEMIMAJOR_AXIS":"6862.581","PERIOD":"94.296","APOGEE":"491.763","PERIGEE":"477.130","DECAYED":"0"},{"COMMENT":"GENERATED VIA SPACETRACK.ORG API","ORIGINATOR":"18 SPCS","NORAD_CAT_ID":"43476","OBJECT_NAME":"GRACE-FO 1","OBJECT_TYPE":"PAYLOAD","CLASSIFICATION_TYPE":"U","INTLDES":"18047A","EPOCH":"2023-10-20 21:02:50","EPOCH_MICROSECONDS":"289216","MEAN_MOTION":"15.27116982","ECCENTRICITY":"0.0010647","INCLINATION":"88.9851","RA_OF_ASC_NODE":"332.096","ARG_OF_PERICENTER":"274.8895","MEAN_ANOMALY":"85.1138","EPHEMERIS_TYPE":"0","ELEMENT_SET_NO":"999","REV_AT_EPOCH":"30117","BSTAR":"0.00017032","MEAN_MOTION_DOT":"0.00004561","MEAN_MOTION_DDOT":"0","FILE":"4044750","TLE_LINE0":"0 GRACE-FO 1","TLE_LINE1":"1 43476U 18047A   23293.87697094  .00004561  00000-0  17032-3 0  9995","TLE_LINE2":"2 43476  88.9851 332.0960 0010647 274.8895  85.1138 15.27116982301179","OBJECT_ID":"2018-047A","OBJECT_NUMBER":"43476","SEMIMAJOR_AXIS":"6862.573","PERIOD":"94.295","APOGEE":"491.744","PERIGEE":"477.131","DECAYED":"0"},{"COMMENT":"GENERATED VIA SPACETRACK.ORG API","ORIGINATOR":"18 SPCS","NORAD_CAT_ID":"43476","OBJECT_NAME":"GRACE-FO 1","OBJECT_TYPE":"PAYLOAD","CLASSIFICATION_TYPE":"U","INTLDES":"18047A","EPOCH":"2023-10-21 12:46:26","EPOCH_MICROSECONDS":"996160","MEAN_MOTION":"15.27121864","ECCENTRICITY":"0.0010637","INCLINATION":"88.9852","RA_OF_ASC_NODE":"332.0065","ARG_OF_PERICENTER":"271.6264","MEAN_ANOMALY":"88.3767","EPHEMERIS_TYPE":"0","ELEMENT_SET_NO":"999","REV_AT_EPOCH":"30127","BSTAR":"0.00015327","MEAN_MOTION_DOT":"0.00004108","MEAN_MOTION_DDOT":"0","FILE":"4045388","TLE_LINE0":"0 GRACE-FO 1","TLE_LINE1":"1 43476U 18047A   23294.53225690  .00004108  00000-0  15327-3 0  9990","TLE_LINE2":"2 43476  88.9852 332.0065 0010637 271.6264  88.3767 15.27121864301279","OBJECT_ID":"2018-047A","OBJECT_NUMBER":"43476","SEMIMAJOR_AXIS":"6862.558","PERIOD":"94.295","APOGEE":"491.723","PERIGEE":"477.124","DECAYED":"0"},{"COMMENT":"GENERATED VIA SPACETRACK.ORG API","ORIGINATOR":"18 SPCS","NORAD_CAT_ID":"43476","OBJECT_NAME":"GRACE-FO 1","OBJECT_TYPE":"PAYLOAD","CLASSIFICATION_TYPE":"U","INTLDES":"18047A","EPOCH":"2023-10-21 22:12:36","EPOCH_MICROSECONDS":"923904","MEAN_MOTION":"15.27125226","ECCENTRICITY":"0.0010634","INCLINATION":"88.9851","RA_OF_ASC_NODE":"331.9529","ARG_OF_PERICENTER":"269.7057","MEAN_ANOMALY":"90.2973","EPHEMERIS_TYPE":"0","ELEMENT_SET_NO":"999","REV_AT_EPOCH":"30133","BSTAR":"0.0001528","MEAN_MOTION_DOT":"0.00004096","MEAN_MOTION_DDOT":"0","FILE":"4046563","TLE_LINE0":"0 GRACE-FO 1","TLE_LINE1":"1 43476U 18047A   23294.92542736  .00004096  00000-0  15280-3 0  9990","TLE_LINE2":"2 43476  88.9851 331.9529 0010634 269.7057  90.2973 15.27125226301330","OBJECT_ID":"2018-047A","OBJECT_NUMBER":"43476","SEMIMAJOR_AXIS":"6862.548","PERIOD":"94.295","APOGEE":"491.711","PERIGEE":"477.116","DECAYED":"0"},{"COMMENT":"GENERATED VIA SPACETRACK.ORG API","ORIGINATOR":"18 SPCS","NORAD_CAT_ID":"43476","OBJECT_NAME":"GRACE-FO 1","OBJECT_TYPE":"PAYLOAD","CLASSIFICATION_TYPE":"U","INTLDES":"18047A","EPOCH":"2023-10-22 13:56:13","EPOCH_MICROSECONDS":"295616","MEAN_MOTION":"15.27130291","ECCENTRICITY":"0.0010638","INCLINATION":"88.9852","RA_OF_ASC_NODE":"331.8634","ARG_OF_PERICENTER":"266.5009","MEAN_ANOMALY":"93.5024","EPHEMERIS_TYPE":"0","ELEMENT_SET_NO":"999","REV_AT_EPOCH":"30143","BSTAR":"0.00013871","MEAN_MOTION_DOT":"0.00003722","MEAN_MOTION_DDOT":"0","FILE":"4047923","TLE_LINE0":"0 GRACE-FO 1","TLE_LINE1":"1 43476U 18047A   23295.58070944  .00003722  00000-0  13871-3 0  9999","TLE_LINE2":"2 43476  88.9852 331.8634 0010638 266.5009  93.5024 15.27130291301435","OBJECT_ID":"2018-047A","OBJECT_NUMBER":"43476","SEMIMAJOR_AXIS":"6862.533","PERIOD":"94.295","APOGEE":"491.698","PERIGEE":"477.098","DECAYED":"0"},{"COMMENT":"GENERATED VIA SPACETRACK.ORG API","ORIGINATOR":"18 SPCS","NORAD_CAT_ID":"43476","OBJECT_NAME":"GRACE-FO 1","OBJECT_TYPE":"PAYLOAD","CLASSIFICATION_TYPE":"U","INTLDES":"18047A","EPOCH":"2023-10-22 20:13:39","EPOCH_MICROSECONDS":"778464","MEAN_MOTION":"15.27133864","ECCENTRICITY":"0.0010644","INCLINATION":"88.9851","RA_OF_ASC_NODE":"331.8277","ARG_OF_PERICENTER":"265.2175","MEAN_ANOMALY":"94.7859","EPHEMERIS_TYPE":"0","ELEMENT_SET_NO":"999","REV_AT_EPOCH":"30147","BSTAR":"0.00015999","MEAN_MOTION_DOT":"0.00004288","MEAN_MOTION_DDOT":"0","FILE":"4047964","TLE_LINE0":"0 GRACE-FO 1","TLE_LINE1":"1 43476U 18047A   23295.84282151  .00004288  00000-0  15999-3 0  9994","TLE_LINE2":"2 43476  88.9851 331.8277 0010644 265.2175  94.7859 15.27133864301476","OBJECT_ID":"2018-047A","OBJECT_NUMBER":"43476","SEMIMAJOR_AXIS":"6862.522","PERIOD":"94.294","APOGEE":"491.692","PERIGEE":"477.083","DECAYED":"0"}]